<?xml version="1.0" encoding="UTF-8"?>
<kml xmlns="http://www.opengis.net/kml/2.2"><Document><name>Radar EEAR — Atlas Histórico v12</name>
<Placemark>
<name>Jerusalém</name>
<description><![CDATA[centro religioso e político do judaísmo do Segundo Templo; cenário central de Atos e dos Evangelhos]]></description>
<Point><coordinates>35.2137,31.7683,0</coordinates></Point>
</Placemark>
<Placemark>
<name>Belém</name>
<description><![CDATA[cidade associada às tradições de nascimento de Jesus e à memória de Davi]]></description>
<Point><coordinates>35.2024,31.7054,0</coordinates></Point>
</Placemark>
<Placemark>
<name>Nazaré</name>
<description><![CDATA[localidade associada à infância e juventude de Jesus nos Evangelhos]]></description>
<Point><coordinates>35.3035,32.6996,0</coordinates></Point>
</Placemark>
<Placemark>
<name>Cafarnaum</name>
<description><![CDATA[povoado à margem do Mar da Galileia, recorrente no ministério de Jesus]]></description>
<Point><coordinates>35.5733,32.8803,0</coordinates></Point>
</Placemark>
<Placemark>
<name>Mar da Galileia</name>
<description><![CDATA[região de pesca, deslocamentos e comunidades mencionadas nos Evangelhos]]></description>
<Point><coordinates>35.59,32.8097,0</coordinates></Point>
</Placemark>
<Placemark>
<name>Samaria</name>
<description><![CDATA[região e cidade importante para compreender relações entre judeus e samaritanos]]></description>
<Point><coordinates>35.1993,32.2766,0</coordinates></Point>
</Placemark>
<Placemark>
<name>Antioquia da Síria</name>
<description><![CDATA[grande cidade helenística e centro do movimento cristão primitivo]]></description>
<Point><coordinates>36.1603,36.2021,0</coordinates></Point>
</Placemark>
<Placemark>
<name>Damasco</name>
<description><![CDATA[cidade associada à experiência de conversão/chamado de Paulo na tradição de Atos]]></description>
<Point><coordinates>36.2765,33.5138,0</coordinates></Point>
</Placemark>
<Placemark>
<name>Tarso</name>
<description><![CDATA[cidade natal de Paulo segundo sua própria apresentação em Atos e cartas; centro urbano da Cilícia]]></description>
<Point><coordinates>34.8917,36.9167,0</coordinates></Point>
</Placemark>
<Placemark>
<name>Éfeso</name>
<description><![CDATA[grande centro urbano da Ásia Menor e palco de Atos 19]]></description>
<Point><coordinates>27.3416,37.939,0</coordinates></Point>
</Placemark>
<Placemark>
<name>Corinto</name>
<description><![CDATA[importante cidade portuária, multicultural e comercial do mundo romano]]></description>
<Point><coordinates>22.8789,37.906,0</coordinates></Point>
</Placemark>
<Placemark>
<name>Filipos</name>
<description><![CDATA[colônia romana na Macedônia associada à primeira comunidade fundada por Paulo no leste da Europa]]></description>
<Point><coordinates>24.2895,41.0136,0</coordinates></Point>
</Placemark>
<Placemark>
<name>Tessalônica</name>
<description><![CDATA[importante cidade da Macedônia e comunidade ligada a 1–2Tessalonicenses]]></description>
<Point><coordinates>22.9444,40.6401,0</coordinates></Point>
</Placemark>
<Placemark>
<name>Atenas</name>
<description><![CDATA[centro filosófico e cultural; Atos 17 narra discurso de Paulo no Areópago]]></description>
<Point><coordinates>23.7275,37.9838,0</coordinates></Point>
</Placemark>
<Placemark>
<name>Mileto</name>
<description><![CDATA[cidade costeira associada ao encontro de Paulo com líderes de Éfeso em Atos 20]]></description>
<Point><coordinates>27.277,37.5306,0</coordinates></Point>
</Placemark>
<Placemark>
<name>Trôade</name>
<description><![CDATA[ponto de passagem marítima nas viagens de Paulo]]></description>
<Point><coordinates>26.0406,39.7562,0</coordinates></Point>
</Placemark>
<Placemark>
<name>Cesareia Marítima</name>
<description><![CDATA[porto romano importante nas narrativas de Atos e prisão de Paulo]]></description>
<Point><coordinates>34.891,32.5007,0</coordinates></Point>
</Placemark>
<Placemark>
<name>Malta</name>
<description><![CDATA[ilha associada ao naufrágio e permanência de Paulo em Atos 28]]></description>
<Point><coordinates>14.3754,35.9375,0</coordinates></Point>
</Placemark>
<Placemark>
<name>Roma</name>
<description><![CDATA[capital imperial e destino final de Atos, onde Paulo é descrito em prisão domiciliar]]></description>
<Point><coordinates>12.4964,41.9028,0</coordinates></Point>
</Placemark>
<Placemark>
<name>Monte Sinai</name>
<description><![CDATA[local tradicionalmente associado à aliança e à entrega da Lei; a localização histórica exata do Sinai é debatida]]></description>
<Point><coordinates>33.975,28.5395,0</coordinates></Point>
</Placemark>
<Placemark>
<name>Cades-Barnéia</name>
<description><![CDATA[local associado a episódios da peregrinação no deserto e às tradições de Números e Deuteronômio]]></description>
<Point><coordinates>34.42,30.65,0</coordinates></Point>
</Placemark>
<Placemark>
<name>Rio Jordão</name>
<description><![CDATA[rio associado à entrada na terra em Josué e ao batismo de Jesus nos Evangelhos]]></description>
<Point><coordinates>35.55,31.8,0</coordinates></Point>
</Placemark>
<Placemark>
<name>Patmos</name>
<description><![CDATA[ilha associada à tradição de João e ao Apocalipse]]></description>
<Point><coordinates>26.55,37.31,0</coordinates></Point>
</Placemark>
<Placemark>
<name>Alexandria</name>
<description><![CDATA[centro helenístico de literatura, matemática, filosofia e tradições judaico-cristãs]]></description>
<Point><coordinates>29.9187,31.2001,0</coordinates></Point>
</Placemark>
<Placemark>
<name>Antioquia da Pisídia</name>
<description><![CDATA[cidade da Ásia Menor visitada nas viagens missionárias segundo Atos 13]]></description>
<Point><coordinates>31.183,38.308,0</coordinates></Point>
</Placemark>
<Placemark>
<name>Icônio</name>
<description><![CDATA[cidade da Ásia Menor associada a Atos 14]]></description>
<Point><coordinates>32.4922,37.8714,0</coordinates></Point>
</Placemark>
<Placemark>
<name>Listra</name>
<description><![CDATA[cidade associada a Atos 14 e à tradição de Timóteo]]></description>
<Point><coordinates>32.46,37.5498,0</coordinates></Point>
</Placemark>
<Placemark>
<name>Derbe</name>
<description><![CDATA[cidade da Licaônia nas viagens missionárias]]></description>
<Point><coordinates>33.03,37.299,0</coordinates></Point>
</Placemark>
<Placemark>
<name>Bereia</name>
<description><![CDATA[cidade macedônia associada a uma recepção atenta à mensagem em Atos 17]]></description>
<Point><coordinates>22.201,40.5174,0</coordinates></Point>
</Placemark>
<Placemark>
<name>Qumran</name>
<description><![CDATA[sítio associado aos Manuscritos do Mar Morto, fundamentais para estudar o judaísmo do Segundo Templo]]></description>
<Point><coordinates>35.4597,31.741,0</coordinates></Point>
</Placemark>
</Document></kml>